ID,screentest,lat,lon,sido,sigungu,centername,address,telephone
1,O,37.516437,127.042193,서울,강남구,강남구보건소,서울특별시 강남구 선릉로 668 (삼성동),02-3423-5555
2,O,37.488319,127.085563,서울,강남구,삼성서울병원,"서울특별시 강남구 일원로 81 (일원동, 삼성의료원)",02-3410-2114
3,O,37.492924,127.046294,서울,강남구,연세대학교의과대학강남세브란스병원,"서울특별시 강남구 언주로 211, 강남세브란스병원 (도곡동)",02-2019-3114
4,O,37.553697,127.157658,서울,강동구,강동경희대학교의대병원,서울특별시 강동구 동남로 892 (상일동),02-440-7000
5,O,37.529475,127.125539,서울,강동구,강동구보건소,서울특별시 강동구 성내로 45 (성내동),02-3425-8565
6,O,37.536434,127.135337,서울,강동구,성심의료재단강동성심병원,서울특별시 강동구 성안로 150 (길동),02-2224-2358
7,O,37.530721,127.148065,서울,강동구,한국보훈복지의료공단중앙보훈병원,서울특별시 강동구 진황도로61길 53 (둔촌동),02-2225-1100
8,O,37.632228,127.038746,서울,강북구,강북구보건소,"서울특별시 강북구 한천로 897 (번동, 강북보건소,번2동주민센터)","02-901-7706
02-901-7704"
9,O,37.549784,126.868277,서울,강서구,강서구보건소,"서울특별시 강서구 공항대로 561 (염창동, 강서보건소)",02-2600-5868
10,O,37.557937,126.83649,서울,강서구,이화여자대학교의과대학부속서울병원,"서울특별시 강서구 공항대로 260, 이화여자대학교 제2부속병원 (마곡동)",1522-7000
11,O,37.478698,126.951135,서울,관악구,관악구보건소,서울특별시 관악구 관악로 145 (봉천동),02-879-7131
12,X,37.485579,126.918124,서울,관악구,관악구보건소 신사동 코로나19 건강상담소,서울특별시 관악구 조원로 142,02-879-7241
13,O,37.484472,126.932575,서울,관악구,에이치플러스양지병원,"서울특별시 관악구 남부순환로 1636, 양지병원 (신림동)",02-1877-8875
14,O,37.538578,127.082405,서울,광진구,광진구보건소,서울특별시 광진구 자양로 117 (자양동),02-450-1937
15,X,37.540389,127.065067,서울,광진구,광진구보건소 자양보건지소,서울특별시 광진구 아차산로24길 17 ,02-450-7090
16,O,37.57675,127.074967,서울,광진구,건국대학교병원,서울특별시 광진구 능동로 120-1 (화양동),02-1588-1533
17,O,37.500323,126.889313,서울,구로구,구로구보건소,"서울특별시 구로구 구로중앙로28길 66 (구로동, 구로5동 주민센터, 구로구보건소)",02-860-2003
18,O,37.482551,126.889851,서울,구로구,구로구보건소 가리봉동선별진료소,서울특별시 구로구 우마2길 35,02-860-2018
19,O,37.492422,126.884883,서울,구로구,고려대학교의과대학부속구로병원,"서울특별시 구로구 구로동로 148, 고려대부속구로병원 (구로동)",02-2626-1114
20,O,37.457229,126.895908,서울,금천구,금천구보건소,"서울특별시 금천구 시흥대로73길 70 (시흥동, 금천구보건소)",02-2627-2717
21,X,37.473809,126.902216,서울,금천구,독산보건분소,서울 금천구 독산로 87길 27,02-2627-1967
22,O,37.455605,126.900528,서울,금천구,희명병원,서울특별시 금천구 시흥대로 244,02-2219-7231
23,O,37.654571,127.056991,서울,노원구,노원구보건소,서울특별시 노원구 노해로 437 (상계동),02-2116-3300~4
24,O,37.636396,127.0699,서울,노원구,노원을지대학교병원,"서울특별시 노원구 한글비석로 68, 을지병원 (하계동)",02-970-8000
25,O,37.648721,127.063143,서울,노원구,인제대학교상계백병원,"서울특별시 노원구 동일로 1342, 상계백병원 (상계동)",02-950-1114
26,O,37.658145,127.038834,서울,도봉구,도봉구보건소,"서울특별시 도봉구 방학로3길 117 (쌍문동, 도봉보건소)",02-2091-4483
27,O,37.574769,127.040136,서울,동대문구,동대문구보건소,서울특별시 동대문구 천호대로 145 (용두동),02-2127-4283
28,O,37.598033,127.051441,서울,동대문구,경희대학교병원,서울특별시 동대문구 경희대로 23 (회기동),02-958-8114
29,O,37.58809,127.065321,서울,동대문구,삼육서울병원,서울특별시 동대문구 망우로 82 (휘경동),1577-3675
30,O,37.575587,127.031434,서울,동대문구,서울특별시동부병원,서울특별시 동대문구 무학로 124 ,02-920-9118~9
31,X,37.584366,127.049949,서울,동대문구,서울성심병원,서울 동대문구 왕산로 259,02-966-1616
32,O,37.504748,126.940865,서울,동작구,동작구보건소,서울특별시 동작구 장승배기로10길 42 (상도동),02-820-9465
33,X,37.491653,126.909121,서울,동작구,동작구보건소 신대방선별진료소,서울특별시 동작구 시흥대로 670,02-832-9404
34,O,37.493516,126.924588,서울,동작구,보라매병원,서울특별시 동작구 보라매로5길 20 (신대방동),02-870-2114
35,O,37.566474,126.902123,서울,마포구,마포구보건소,"서울특별시 마포구 월드컵로 212 (성산동, 마포구보건소)",02-3153-9037
36,O,37.578792,126.936251,서울,서대문구,서대문구보건소,서울특별시 연희로 242,02-330-8726
37,O,37.562483,126.941047,서울,서대문구,학교법인연세대학교의과대학세브란스병원,서울특별시 서대문구 연세로 50-1 (신촌동),1599-1004
38,O,37.48384,127.033396,서울,서초구,서초구보건소,서울특별시 서초구 남부순환로 2584 (서초동),02-2155-8093
39,O,37.501982,127.004791,서울,서초구,학교법인가톨릭학원가톨릭대학교서울성모병원,서울특별시 서초구 반포대로 222 (반포동),02-1588-1511
40,O,37.45566,127.068839,서울,서초구,서울특별시 어린이병원,서울특별시 서초구 헌릉로 260,02-570-8000
41,O,37.567248,127.033186,서울,성동구,성동구보건소,서울특별시 성동구 마장로23길 10 (홍익동),02-2286-7172
42,O,37.563948,127.043582,서울,성동구,한양대학교병원,서울특별시 성동구 왕십리로 222-1 (사근동),02-2290-8114
43,O,37.602906,127.039475,서울,성북구,성북구보건소,서울특별시 성북구 화랑로 63 (하월곡동),02-2241-6022
44,O,37.587225,127.026787,서울,성북구,(학)고려대학교의과대학부속병원(안암병원),"서울특별시 성북구 고려대로 73, 고려대병원 (안암동5가)",02-1577-0083
45,O,37.514807,127.106563,서울,송파구,송파구보건소,서울특별시 송파구 올림픽로 326 (신천동),02-2147-3478~9
46,O,37.527121,127.108427,서울,송파구,재단법인아산사회복지재단서울아산병원,"서울특별시 송파구 올림픽로43길 88, 서울아산병원 (풍납동)",02-3010-3114
47,O,37.496451,127.123438,서울,송파구,경찰병원,서울특별시 송파구 송이로 123,02-3400-1933
48,O,37.517803,126.865817,서울,양천구,양천구보건소,서울특별시 양천구 목동서로 339 (신정동),02-2620-3856
49,O,37.512185,126.833254,서울,양천구,서울특별시 서남병원,서울특별시 양천구 신정이펜1로 20,1566-6688
50,O,37.537315,126.885627,서울,양천구,이화여자대학교의과대학부속목동병원,서울특별시 양천구 안양천로 1071 (목동),02-1666-5000
51,O,37.526608,126.895502,서울,영등포구,영등포구보건소,"서울특별시 영등포구 당산로 123 (당산동3가, 영등포구청)",02-2670-4953
52,O,37.492924,126.90878,서울,영등포구,한림대학교강남성심병원,"서울특별시 영등포구 신길로 1 (대림동, 강남성심병원)",02-829-5114
53,O,37.517928,126.935537,서울,영등포구,가톨릭대학교 여의도성모병원,서울특별시 영등포구 63로 10,02-1661-7575
54,O,37.515991,126.922372,서울,영등포구,성애의료재단성애병원,"서울특별시 영등포구 여의대방로53길 22 (신길동, 성애병원)",02-840-7114
55,X,37.494142,126.899229,서울,영등포구,명지성모병원,서울특별시 영등포구도림로 156,02-829-7800
56,O,37.533411,126.990628,서울,용산구,용산구보건소,"서울특별시 용산구 녹사평대로 150 (이태원동, 용산구종합행정타운)",02-2199-8371~4
57,O,37.534216,127.004334,서울,용산구,순천향대학교 부속 서울병원,서울특별시 용산구 대사관로 59 (한남동),02-709-9114
58,O,37.602631,126.928901,서울,은평구,은평구보건소,서울특별시 은평구 은평로 195 (녹번동),02-351-8640
59,O,37.604449,126.905087,서울,은평구,서울특별시립 서북병원,서울특별시 은평구 갈현로7길 49,02-3156-3022
60,O,37.594448,126.923265,서울,은평구,서울특별시 은평병원,서울특별시 은평구 백련산로 90,02-300-8060
61,O,37.63374,126.916152,서울,은평구,가톨릭대학교 은평성모병원,서울특별시 은평구 통일로 1021 (진관동),02-958-2114
62,O,37.620978,126.919586,서울,은평구,청구성심병원,서울 은평구 통일로 873,383-0129
63,O,37.581939,126.969251,서울,종로구,종로구보건소,서울특별시 종로구 자하문로19길 36 (옥인동),02-2148-3557
64,O,37.568503,126.967452,서울,종로구,강북삼성병원,서울특별시 종로구 새문안로 29 (평동),02-2001-2001
65,O,37.567278,126.966917,서울,종로구,서울적십자병원,서울시 종로구 평동 164,02-2002-8650
66,O,37.588223,126.982667,서울,종로구,서울지구병원,서울시 종로구 삼청로10길 13(삼청동),02-397-2018
67,O,37.565088,126.988742,서울,중구,인제대학교서울백병원,서울특별시 중구 마른내로 9 (저동2가),02-2270-0114
68,O,37.566105,127.015164,서울,중구,중구보건소,서울특별시 중구 다산로39길 16 (무학동),02-3396-5181
69,X,37.561125,126.98451,서울,중구,중구보건소 명동선별상담소,서울특별시 중구 퇴계로115,02-3396-5181
70,O,37.608648,127.092726,서울,중랑구,중랑구보건소,서울특별시 중랑구 봉화산로 179 (신내동),02-2094-0800
71,O,37.612968,127.098199,서울,중랑구,서울의료원,서울특별시 중랑구 신내로 156,02-2276-8333
72,O,35.180359,128.95723,부산,강서구,강서구보건소, 강서구 공항로811번길 10,051-970-3415
73,O,35.090447,128.853248,부산,강서구,갑을녹산병원, 강서구 녹산산단 321로 24-8,051-974-8449
74,O,35.242267,129.092493,부산,금정구,금정구보건소, 금정구 중앙대로 1777,051-519-5051
75,O,35.214583,129.104041,부산,금정구,세웅병원,부산광역시 금정구 서동로 162(서동),051-500-9700
76,O,35.321457,129.243292,부산,기장군,동남권원자력의원,기장군 장안읍 좌동길40,051-720-5114
77,O,35.243658,129.222779,부산,기장군,기장군보건소,기장군 기장읍 기장대로 560,051-709-4796
78,O,35.213656,129.065292,부산,남구,남구 보건소, 남구 못골로 23(대연동),051-607-6460
79,X,35.110935,129.109544,부산,남구,부산성모병원, 남구 용호로 232번길 25-14,051-933-7119
80,O,35.134896,129.049435,부산,동구,봉생병원,부산 동구 중앙대로401,051-664-4000
81,O,35.19198,129.045435,부산,동구,동구보건소,부산 동구 구청로 1 (수정동),051-440-6500
82,O,35.140968,129.058942,부산,동구,좋은문화병원,부산광역시 동구 범일로 119(범일동),051-644-2002
83,O,35.204667,129.080185,부산,동래구,대동병원,동래구 충렬대로 187 (명륜동),051-554-1233
84,O,35.211603,129.07983,부산,동래구,동래구보건소 , 동래구 명륜로187번길 56 (명륜동) ,051-555-4000
85,O,35.146394,129.020834,부산,부산진구,인제대학교부산백병원,부산진구 복지로 75,051-890-8933
86,O,35.146538,129.059904,부산,부산진구,부산진구보건소,부산진구 황령대로8번길 36,051-645-4000
87,X,35.160142,129.050194,부산,부산진구,온종합병원,부산진구 가야대로 721,051-607-0139
88,X,35.170085,129.076715,부산,부산진구,동의병원,부산진구 양정로 62,051-850-8777
89,X,35.14711,129.058372,부산,부산진구,춘해병원,부산진구 중앙대로 605,051-608-0119
90,O,35.240972,129.015138,부산,북구,북구보건소,북구 금곡대로 348,051-309-4500
91,O,35.22771,129.01315,부산,북구,의료법인 인당의료재단 부민병원,북구 만덕대로 59,051-330-3000
92,X,35.209761,129.004577,부산,북구,구포성심병원,부산 북구 낙동대로 1786(구포동) ,051-330-2001
93,O,35.152689,128.99206,부산,사상구,사상구보건소,사상구 학감대로 242,051-310-4791
94,O,35.150734,129.008156,부산,사상구,좋은삼선병원,사상구 가야대로 326 (주례동),051-322-0900
95,O,35.094532,128.959475,부산,사하구,사하구보건소,하신번영로127번길 2(신평동),051-220-5701
96,O,35.107539,129.018091,부산,서구,서구 보건소,부용로 30,051-242-4000
97,O,35.120065,129.017533,부산,서구,동아대학교병원,서구 대신공원로 26,051-240-2400
98,O,35.080452,129.015898,부산,서구,고신대학교복음병원,서구 감천로 262,051-990-3233
99,O,35.112646,129.011246,부산,서구,삼육부산병원,서구 대티로 170,051-600-7575
100,O,35.15021,129.110618,부산,수영구,좋은강안병원, 수영구 수영로 493,051-625-0900
101,O,35.160838,129.113153,부산,수영구,비에이치에스한서병원,수영로 615(광안동),051-756-0081
102,O,35.162759,129.113502,부산,수영구,수영구보건소, 수영구 수영로 637-5,051-752-4000
103,O,35.177131,129.079013,부산,연제구,연제구보건소,연제구 연제로 2,051-665-4781
104,O,35.090309,129.068023,부산,영도구,영도구보건소, 영도구 태종로 423,051-419-4931
105,O,35.09225,129.040536,부산,영도구,영도병원,부산시 영도구 태종로 85,051-419-7881
106,O,35.091949,129.043934,부산,영도구,해동병원,부산시 영도구 태종로 133(봉래동 3가),051-410-6682
107,O,35.106342,129.032353,부산,중구,중구 보건소,중구 중구로 120,051-600-4741
108,O,35.107387,129.032506,부산,중구,메리놀병원,중구 중구로 121,"(주)051- 461-2348
(야)051- 461-2300"
109,O,35.164324,129.178724,부산,해운대구,해운대구보건소,해운대구 양운로37번길 59,051-746-4000
110,O,35.161429,129.155862,부산,해운대구,해운대부민병원,해운대구 해운대로584,051-602-8000
111,O,35.173669,129.181968,부산,해운대구,인제대학교해운대백병원,해운대구 해운대로 875,051-797-0119
112,O,35.847413,128.584891,대구,남구,영남대학교병원,대구시 남구 현충로 170(대명동),"053-623-8001
053-620-3332"
113,O,35.843829,128.568004,대구,남구,대구 가톨릭대학교병원,대구시 남구 두류공원로17길33(대명동),053-650-3000
114,O,35.853889,128.59151,대구,남구,남구보건소,대구시 남구 영선길 34 ,"053-664-3644
053-664-3582"
115,O,35.853071,128.574117,대구,남구,굿모닝병원,대구 남구 성당로 224,053-620-9100
116,O,35.839642,128.574455,대구,남구,드림병원,대구 남구 대명로 153,053-640-8800
117,O,35.829764,128.532632,대구,달서구,달서구보건소,대구광역시 달서구 학산로 45,"053-667-5754
053-667-3123"
118,O,35.853478,128.480259,대구,달서구,계명대학교 동산병원,대구 달서구 달구벌대로 1035(신당동),053-258-6879
119,O,35.836814,128.541725,대구,달서구,보광병원,대구광역시 달서구 구마로 128,053-651-3232
120,O,35.850816,128.54141,대구,달서구,의료법인구의료재단 구병원,대구광역시 달서구 감삼북길 141,053-560-9114
121,O,35.833179,128.554201,대구,달서구,삼일병원,대구광역시 달서구 월배로 446,053-659-3100
122,O,35.852742,128.54505,대구,달서구,더블유병원,대구광역시 달서구 달구벌대로 1632,053-550-5003 
123,O,35.836735,128.551743,대구,달서구,세강병원,대구 달서구 구마로 220,053-215-6200
124,O,35.694798,128.440269,대구,달성군,달성군보건소,대구 달성군 현풍읍 비슬로130길 17 ,"053-668-3121
053-668-3114"
125,O,35.883902,128.62408,대구,동구,대구파티마병원,대구시 동구 아양로 99(심암동),"1688-7770
053-940-7098"
126,O,35.888113,128.651217,대구,동구,동구보건소,대구광역시 동구 동촌로 79 ,"053-662-3225
053-662-3274"
127,O,35.956749,128.564386,대구,북구,칠곡경북대학교병원,대구시 북구 호국로 807(학정동),053-200-2000
128,O,35.891933,128.588879,대구,북구,북구보건소,대구광역시 북구 성북로 49,"053-665-2756
053-665-2760"
129,O,35.935028,128.549297,대구,북구,대구가톨릭대학교 칠곡가톨릭병원,대구광역시 북구 칠곡중앙대로 440,053-320-2186
130,O,35.950948,128.56411,대구,북구,근로복지공단 대구병원,대구 북구 학정로 515,053-715-7575
131,O,35.872383,128.559353,대구,서구,서구보건소,(703-701)대구 서구 국채보상로 257,"053-663-3176
053-663-3178"
132,O,35.844719,128.612153,대구,수성구,수성구보건소,대구광역시 수성구 수성로 213,"053-666-3264
053-666-3266"
133,O,35.878836,128.583047,대구,중구,중구보건소,대구광역시 중구 태평로 45 ,"053-661-3804
053-661-3826"
134,O,37.736944,126.484892,인천,강화군,강화군보건소,인천시 강화군 강화읍 충혈사로 36-1,032-930-4081
135,O,37.731311,126.478139,인천,강화군,비에스종합병원,강화읍 충렬사로 31,032-290-0001
136,O,37.532298,126.734306,인천,계양구,한림병원,계양구 장제로 722,032-540-9114
137,O,37.532264,126.736795,인천,계양구,메디플렉스 세종병원,계양구 계양문화로 20,032-240-8000
138,O,37.53757,126.737517,인천,계양구,계양구보건소,인천시 계양구 계산새로 88,032-430-7821
139,O,37.448019,126.730424,인천,남동구,남동구보건소,인천시 남동구 소래로 633,032-466-3808
140,O,37.477736,126.648717,인천,동구,의료법인성수의료재단인천백병원,동구 샛골로 214,032-765-7070
141,O,35.888171,128.651196,인천,동구,동구보건소,동구 석수로 90,032-770-5700
142,O,37.461584,126.64299,인천,미추홀구,현대유비스 병원,미추홀구 독배로 503,032-890-5509
143,O,37.461126,126.677374,인천,미추홀구,미추홀구보건소,인천시 미추홀구 주안서로 25,032-880-5311
144,O,37.462388,126.680709,인천,미추홀구,인천사랑병원,미추홀구 미추홀대로 726,032-457-2000
145,O,37.48487,126.724888,인천,부평구,가톨릭대학교 인천성모병원,부평구 동수로 56,1544-9004
146,O,37.507175,126.72008,인천,부평구,부평세림병원,부평구 부평대로 175,032-524-0591
147,O,37.47662,126.753682,인천,부평구,근로복지공단 인천병원,부평구 무네미로 446,032-500-0114
148,O,37.498891,126.724257,인천,부평구,부평구보건소,인천시 부평구 부흥로 291,032-509-8200
149,O,37.542276,126.68362,인천,서구,국제성모병원,서구 심곡로 100번길 25,1600-8291
150,O,37.489042,126.679717,인천,서구,나은병원,서구 원적로 23,032-584-0114
151,O,37.509362,126.66974,인천,서구,성민병원,서구 신석로 70,032-726-1119
152,O,37.59266,126.671082,인천,서구,검단탑병원,서구 청마로 19번길 5,032-590-0114
153,O,37.602729,126.654316,인천,서구,온누리병원,서구 완정로 199,032-568-9111
154,O,37.544459,126.673894,인천,서구,서구보건소,인천시 서구 탁옥로 39,032-560-5000
155,O,37.40806,126.670504,인천,연수구,나사렛 국제병원,연수구 먼우금로 98,032-899-9999
156,O,37.419053,126.671061,인천,연수구,연수구보건소,인천시 연수구 함박뫼로 13,032-749-8000
157,O,37.418317,126.689557,인천,연수구,인천적십자병원,인천시 연수구 원인재로 263,032-899-4287
158,O,37.446696,126.636779,인천,옹진군,옹진군보건소,인천시 미추홀구 매소홀로 120,032-899-3120
159,O,37.968011,124.721089,인천,옹진군,백령병원,옹진군 백령면 백령로 233,032-836-1731
160,O,37.471166,126.631993,인천,중구,인천기독병원,중구 답동로 30번길 10,032-270-8000
161,O,37.477318,126.628857,인천,중구,중구보건소,인천시 중구 참외전로72번길 21,032-760-6050
162,O,37.444124,126.402577,인천,중구,중구보건소 용유지소,인천시 중구 마시란로 308-1,032-760-8991
163,O,37.49399,126.531251,인천,중구,영종보건지소,인천시 중구 운남서로 100-1,032-760-6800
164,O,35.140262,126.793666,광주,광산구,광산구보건소,광주광역시 광산구 광산로29번길 15 (송정동),062-960-8859
165,O,35.221089,126.845254,광주,광산구,첨단종합병원,광주광역시 광산구 첨단중앙로170번길 59 (쌍암동),"주 062-601-8771
야 062-601-8119"
166,O,35.197963,126.833157,광주,광산구,KS병원,광주광역시 광산구 왕버들로220,062-975-9119
167,O,35.136748,126.912124,광주,남구,광주기독병원,광주광역시 남구 양림로 37 (양림동),062-650-5119
168,O,35.132859,126.902497,광주,남구,남구보건소,"광주광역시 남구 봉선로 1 (주월동, 남구청)",062-607-4450
169,O,35.145621,126.923206,광주,동구,동구보건소,광주광역시 동구 서남로 1 (서석동),062-608-3312
170,X,35.202902,126.897631,광주,북구,광주일곡병원,광주광역시 북구 양일로 309 (일곡동),062-608-7119
171,O,35.173487,126.912126,광주,북구,북구보건소,광주광역시 북구 우치로 65 (중흥동),062-410-8961
172,O,35.132711,126.855601,광주,서구,서광병원,광주광역시 서구 금화로59번길 6 (금호동),"062-600-8119, 8161"
173,O,36.367109,127.381075,광주,서구,서구보건소,광주광역시 서구 경열로 33 (농성동),062-350-4158
174,O,36.445035,127.42601,대전,대덕구,대덕구보건소, 대전광역시 대덕구 석봉로 38길 55,042-608-5436~40
175,O,36.447234,127.439646,대전,대덕구,대전보훈병원,"대전광역시 대덕구 대청로82번길 147 (신탄진동,147)","042-939-0118, 0100"
176,O,36.368536,127.428418,대전,대덕구,근로복지공단 대전병원,대덕구 계족로 637,"(주)042-670-5406
(야)042-670-5119"
177,O,36.312102,127.454856,대전,동구,동구보건소,대전광역시 동구 동구청로147(가오동),042-251-6305
178,O,36.34821,127.435792,대전,동구,대전한국병원,대전광역시 동구 동서대로 1672 ,042-606-1500
179,O,36.367058,127.381063,대전,서구,서구보건소, 대전광역시 서구 만년로74,042-288-4500
180,O,36.306618,127.342583,대전,서구,건양대학교병원,"대전광역시 서구 관저동로 158 (관저동,(관저동))",042-600-9999
181,O,36.355295,127.381975,대전,서구,을지대학교병원,"대전광역시 서구 둔산서로 95 (둔산동,(둔산동))",042-259-1060
182,O,36.35812,127.33544,대전,유성구,유성구보건소,대전광역시 유성구 유성대로730번길51,042-611-5047
183,O,36.375101,127.324961,대전,유성구,유성선병원,"대전광역시 유성구 북유성대로 93 (지족동,(지족동))",042-609-1000
184,O,36.308027,127.395092,대전,중구,중구보건소,대전광역시 중구 산성로 63,042-288-8043
185,O,36.336123,127.41018,대전,중구,대전선병원,"대전광역시 중구 목중로 29 (목동,(목동))",042-220-8114
186,O,36.322045,127.420363,대전,중구,대전성모병원,"대전광역시 중구 대흥로 64 (대흥동,(대흥동))",042-220-9114
187,O,35.546829,129.322644,울산,남구,울산병원,울산광역시 남구 월평로171번길 13 (신정동),052-259-5000
188,O,35.553022,129.269048,울산,남구,좋은삼정병원,울산광역시 남구 북부순환도로 51 (무거동),052-220-7500
189,O,35.531532,129.3052,울산,남구,"의)정안의료재단
중앙병원",울산광역시 남구 문수로480번길 10 (신정동),052-226-1100
190,O,35.545394,129.336288,울산,남구,남구보건소,"울산광역시 남구 삼산중로 132 (삼산동, 울산남구보건소)",052-226-2805
191,O,35.506644,129.417982,울산,동구,동구보건소,울산광역시 동구 봉수로 155 (화정동),052-209-4080
192,O,35.582982,129.359248,울산,북구,울산시티병원,울산광역시 북구 산업로 1007 (연암동),052-280-9000
193,O,35.580694,129.362811,울산,북구,북구보건소,울산광역시 북구 산업로 1018 (연암동),052-289-3450
194,O,35.559831,129.120863,울산,울주군,서울산보람병원,울산광역시 울주군 삼남면 중평로 53,052-255-7114
195,O,35.558415,129.113706,울산,울주군,울주군보건소,울산광역시 울주군 삼남면 서향교1길 67-12,052-265-9095
196,O,35.455321,129.290746,울산,울주군,남부통합보건지소,울주군 온양읍 터실1길 13,052-204-2818
197,O,35.553424,129.302071,울산,중구,동강병원,울산광역시 중구 태화로 239 (태화동),052-241-1114
198,O,35.569516,129.350384,울산,중구,중구보건소,울산광역시 중구 외솔큰길 225 (남외동),052-290-4300
199,O,36.605575,127.296351,세종,,세종특별자치시보건소,세종특별자치시 조치원읍 건강길 16,044-301-2841~5
200,O,36.494889,127.265657,세종,,세종특별자치시보건소(충남대학교병원세종의원),세종특별자치시 가름로 238-1,044-301-2841~5
201,O,37.833427,127.510582,경기,가평군,가평군보건소,경기도 가평군 가평읍 가화로 155-18,031-582-2488
202,O,37.691104,127.521364,경기,가평군,HJ매그놀리아국제병원,경기도 가평군 설악면 미사리로 267-177,031-589-4300
203,O,37.657815,126.831143,경기,고양시,덕양구 보건소,경기도 고양시 덕양구 원당로33번길 28 (주교동),031-8075-4059
204,O,37.655943,126.776105,경기,고양시,일산동구보건소,"경기도 고양시 일산동구 중앙로 1228 (마두동,KT고양지사 일산동구보건소)",031-8075-4135
205,O,37.684425,126.775824,경기,고양시,일산서구보건소,경기도 고양시 일산서구 일중로 54 (일산동),031-8075-4212
206,O,37.674282,126.75035,경기,고양시,인제대학교 일산백병원,고양시 일산서구 주화로 170,031-910-7297
207,O,37.676352,126.806682,경기,고양시,동국대학교일산불교병원,고양시 일산동구 동국로 27(식사동),031-961-8010
208,O,37.645502,126.793034,경기,고양시,국민건강보험공단 일산병원,경기도 고양시 일산동구 일산로 100,031-900-0114
209,O,37.68189,126.780169,경기,고양시,일산복음병원,경기도 고양시 일산동구 고양대로760,"031-929-0330,0331"
210,O,37.429819,126.986979,경기,과천시,과천시보건소,경기도 과천시 관문로69,02-2150-3832
211,X,37.473495,126.871844,경기,광명시,광명성애병원,"경기도 광명시 디지털로 36 (철산동, 광명성애병원)",02-2680-7115
212,O,37.456356,126.87855,경기,광명시,광명시보건소,"경기도 광명시 오리로 613 (하안동, 광명시보건소)",02-2680-2577 
213,O,37.416389,127.250687,경기,광주시,광주시보건소,경기도 광주시 파발로 194,031-760-2359
214,X,37.411028,127.26014,경기,광주시,참조은병원,경기도 광주시 광주대로 45,031-881-9285
215,O,37.60468,127.145059,경기,구리시,구리시보건소,"경기도 구리시 건원대로34번길 84 (인창동, 구리보건소)",031-550-8618
216,O,37.601217,127.132402,경기,구리시,한양대학교구리병원,경기도 구리시 경춘로 153 (교문동),1644-9118
217,O,37.358669,126.947339,경기,군포시,효신의료재단 지샘병원,"경기도 군포시 군포로 591 (당동, (G샘병원)군포샘병원)",031-389-3000
218,O,37.35935,126.933589,경기,군포시,원광대학교 산본병원,경기도 군포시 산본로 321 (산본동),031-390-2300
219,O,37.36515,126.933148,경기,군포시,군포시보건소,경기도 군포시 군포로 221 (부곡동),031-461-5464
220,O,37.63237,126.710716,경기,김포시,김포우리병원,"경기도 김포시 감암로 11, 김포우리병원 (걸포동)",031-999-1000
221,O,37.641065,126.65981,경기,김포시,뉴고려병원,"경기도 김포시 김포한강3로 283, 뉴고려병원 (장기동)",031-998-8129
222,O,37.62369,126.722921,경기,김포시,김포시보건소,경기도 김포시 사우중로 108 (사우동),031-980-5052
223,O,37.635578,127.216113,경기,남양주시,남양주보건소,경기도 남양주시 경춘로 1037 (금곡동),031-590-4454
224,O,37.710694,127.188508,경기,남양주시,남양주풍양보건소,경기도 남양주시 진접읍 해밀예당1로 30-39,031-590-6956
225,O,37.682404,127.204411,경기,남양주시,남양주한양병원,경기도 남양주시 오남읍 양지로 47-55,"031-510-0114, 031-510-0119"
226,O,37.715805,127.179675,경기,남양주시,현대병원,경기도 남양주시 진접읍 봉현로 21,031-574-9118
227,O,37.896596,127.051654,경기,동두천시,동두천보건소,경기도 동두천시 중앙로 167 (생연동),031-860-3395
228,O,37.494177,126.78101,경기,부천시,부천시보건소,경기도 부천시 옥산로10번길 16,032-625-4125
229,X,37.528135,126.796223,경기,부천시,부천시 오정보건소,경기도 부천시 성오로 172,032-625-8881
230,X,37.480398,126.7994,경기,부천시,부천시 소사보건소,부천시 경인옛로73,032-625-8881~4
231,O,37.498386,126.762852,경기,부천시,순천향대학교 부천병원,경기도 부천시 조마루로 170 (중동),032-621-5114
232,O,37.486994,126.792358,경기,부천시,가톨릭대학교부천성모병원,경기도 부천시 소사로 327,032-340-2402
233,O,37.481054,126.791201,경기,부천시,부천세종병원,경기도 부천시 호현로 489번길 28,"주간) 032-340-1897, 야간) 032-340-1119"
234,O,37.441766,127.17082,경기,성남시,중원구보건소,"경기도 성남시 중원구 금상로 137 (상대원동, 중원구보건소)",031-729-3895
235,O,37.411052,127.124612,경기,성남시,분당구보건소,경기도 성남시 분당구 양현로 306 (야탑동),031-729-4004
236,O,37.38817,127.121726,경기,성남시,분당제생병원,분당구 서현로 180번길 20,031-779-0100
237,O,37.410221,127.125476,경기,성남시,분당차병원 ,분당구 야탑로 59,031-780-5546
238,O,37.444376,127.144125,경기,성남시,수정구보건소,"경기도 성남시 수정구 수정로 218 (신흥동, 수정구보건소)",031-729-3872
239,O,37.444915,127.138886,경기,성남시,성남시의료원,경기도 성남시 수정구 수정로 171번길 10,031-738-7000
240,O,37.439818,127.128991,경기,성남시,순천의료재단정병원,경기도 성남시 수정구 수정로 76,031-750-6000
241,O,37.452838,127.16197,경기,성남시,성남중앙병원,중원구 산성대로 476번길 12,031-799-5366
242,O,37.258718,126.971113,경기,수원시,권선구보건소,경기도 수원시 권선구 호매실로 22-50 (탑동),031-228-6716
243,O,37.256831,127.069604,경기,수원시,영통구보건소,경기도 수원시 영통구 영통로 396 (영통동),031-228-8808
244,O,37.304387,127.010177,경기,수원시,장안구보건소,"경기도 수원시 장안구 송원로 101 (조원동, 장안구구보건소)",031-228-5715
245,O,37.271383,127.012367,경기,수원시,팔달구보건소,경기도 수원시 팔달구 팔달산로 6 (교동),031-228-7716
246,O,37.279426,127.047473,경기,수원시,아주대학교병원,경기도 수원시 영통구 월드컵로 164 (원천동),031-219-5114
247,O,37.291857,126.996295,경기,수원시,경기도의료원 수원병원,경기도 수원시 장안구 수성로245번길 69 (정자동),"031-888-0119, 031-888-0129"
248,O,37.278241,127.027789,경기,수원시,성빈센트병원,경기도 수원시 팔달구 중부대로 93 (지동),1577-8588
249,O,37.278586,127.034349,경기,수원시,동수원병원,경기도 수원시 팔달구 중부대로 165 (우만동),031-210-0114
250,O,37.336864,126.728,경기,시흥시,석경의료재단 센트럴병원,"경기도 시흥시 공단1대로 237 (정왕동, 센트럴 병원)",031-8041-3530
251,O,37.444563,126.78953,경기,시흥시,신천연합병원 ,시흥시 복지로 57,031-310-6300
252,O,37.352905,126.724516,경기,시흥시,시흥시화병원,경기도 시흥시 옥구천서로 337,031-432-2600
253,O,37.445405,126.7849,경기,시흥시,시흥시보건소,경기도 시흥시 호현로 55 (대야동),031-310-5813
254,O,37.346771,126.739977,경기,시흥시,시흥시 정왕보건지소,시흥시 정왕대로 233번길  19,031-310-5907
255,O,37.31932,126.81213,경기,안산시,단원보건소,경기도 안산시 단원구 화랑로 250 (초지동),031-481-6363
256,O,37.301033,126.845022,경기,안산시,안산시상록수보건소,경기 안산시 상록구 차돌배기로1길 15,031-481-5894
257,O,37.318288,126.824895,경기,안산시,고대안산병원,경기도 안산시 단원구 적금로 123 (고잔동),031-412-5400
258,O,37.33398,126.807617,경기,안산시,한도병원,경기도 안산시 단원구 선부광장로 103,031-8040-1369
259,O,37.316732,126.873997,경기,안산시,근로복지공단안산병원,"경기도 안산시 상록구 구룡로 87, 근로복지공단안산병원 (일동)",031-500-1114
260,O,37.017288,127.260412,경기,안성시,경기도의료원 안성병원,경기도 안성시 남파로 95 (당왕동),031-8046-5000
261,O,37.006223,127.271034,경기,안성시,안성성모병원,경기도 안성시 시장길 58 (서인동),031-675-6007
262,O,37.00016,127.269812,경기,안성시,안성시보건소,경기도 안성시 강변로74번길 18 (도기동),031-678-5710
263,O,37.392932,126.952051,경기,안양시,동안구보건소,경기도 안양시 동안구 평촌대로253번길 41 (비산동),031-8045-4472
264,O,37.385813,126.932947,경기,안양시,만안구보건소,경기도 안양시 만안구 문예로 48 (안양동),031-8045-3472
265,O,37.39163,126.961959,경기,안양시,한림대학교 성심병원,경기도 안양시 동안구 관평로170번길 22 (평촌동),031-380-1500
266,O,37.393415,126.924303,경기,안양시,안양샘병원,"경기도 안양시 만안구 삼덕로 9 (안양동, 안양샘병원)",031-467-9119
267,O,37.785573,127.046591,경기,양주시,양주시보건소,경기도 양주시 부흥로 1533 (남방동),031-8082-7116
268,O,37.497031,127.486627,경기,양평군,양평군보건소,경기도 양평군 양평읍 마유산로 17,031-770-3490
269,O,37.493932,127.503489,경기,양평군,양평병원,경기도 양평군 양평읍 중앙로 129,031-770-5119
270,X,37.301294,127.626635,경기,여주시,세종여주병원,"경기도 여주시 청심로 39, 세종여주병원 (하동)",031-880-7700
271,O,37.294552,127.640325,경기,여주시,여주시보건소,경기도 여주시 여흥로160번길 14 (상동),031-887-3601
272,O,38.023461,127.060955,경기,연천군,연천군 보건의료원,경기도 연천군 전곡읍 은대성로 95,031-839-4064
273,O,37.159323,127.077821,경기,오산시,오산시보건소,경기도 오산시 경기동로 59 (오산동),031-8036-6025
274,O,37.141202,127.075234,경기,오산시,오산한국병원,경기도 오산시 밀머리로1번길 16 (원동),031-379-8300
275,O,37.272651,127.106761,경기,용인시,기흥구보건소,"경기도 용인시 기흥구 신갈로58번길 11 (신갈동, 기흥구 보건소)",031-324-6975
276,O,37.322555,127.097679,경기,용인시,수지구보건소,경기도 용인시 수지구 포은대로 435 (풍덕천동),"031-324-8451, 8452, 8453"
277,O,37.273767,127.111581,경기,용인시,강남병원,"경기도 용인시 기흥구 중부대로 411, 강남병원 (신갈동)",031-300-0119
278,O,37.24083,127.176098,경기,용인시,처인구보건소,경기도 용인시 처인구 중부대로 1199,031-324-2114
279,O,37.231663,127.211317,경기,용인시,영문의료재단 다보스병원,"경기도 용인시 처인구 백옥대로1082번길 18, 다보스종합병원 (김량장동)",031-8021-2000
280,O,37.271094,127.148013,경기,용인시,용인세브란스병원,경기 용인시 기흥구 동백죽전대로 363,031-5189-9010
281,O,37.2405,127.214516,경기,용인시,용인서울병원,경기도 용인시 처인구 고림로 81 ,031-322-0001
282,O,37.343737,126.972036,경기,의왕시,의왕시보건소,"경기도 의왕시 오봉로 34 (고천동, 의왕시보건소)",031-345-3572
283,O,37.350307,126.976849,경기,의왕시,아가페의료재단 시티병원,경기도 의왕시 오전천로 29,031-340-2555
284,O,37.740981,127.042453,경기,의정부시,경기도의료원의정부병원 (응급실),경기도 의정부시 흥선로 142 (의정부동),031-828-5143
285,X,37.736196,127.039504,경기,의정부시,의정부시보건소,의정부시 범골로 131,031-870-6011~4
286,O,37.758658,127.077696,경기,의정부시,가톨릭대학교 의정부성모병원,의정부시 천보로 271,1661-7500
287,O,37.750034,127.045124,경기,의정부시,추병원,의정부시 평화로 650,031-823-8063
288,O,37.745312,127.062118,경기,의정부시,의정부백병원,경기도 의정부시 금신로  322,031-842-1211
289,O,37.282674,127.432821,경기,이천시,경기도의료원 이천병원,경기도 이천시 경충대로 2742 (관고동),031-630-4200
290,O,37.28891,127.452266,경기,이천시,이천시보건소,경기도 이천시 증신로153번길 13 (증포동),031-635-2400
291,O,37.756294,126.773918,경기,파주시,파주시보건소,경기도 파주시 후곡로 13 (금촌동),031-940-4800
292,O,37.754907,126.779692,경기,파주시,경기도의료원 파주병원,"경기도 파주시 중앙로 207, 경기도립의료원파주병원 (금촌동)",031-940-9100
293,O,36.990657,127.120282,경기,평택시,의료법인 백송의료재단 굿모닝병원,경기도 평택시 중앙로 338 (합정동),031-5182-7700
294,O,36.993021,127.089039,경기,평택시,의료법인 박애의료재단 박애병원,경기도 평택시 평택2로20번길 3 (평택동),031-652-2121
295,O,37.008373,127.074107,경기,평택시,의료법인 양진의료재단 평택성모병원,경기도 평택시 평택로 284 (세교동),1800-8800
296,O,36.990867,127.111906,경기,평택시,평택보건소,경기도 평택시 평택5로 56 (비전동),031-8024-5559
297,O,36.985797,126.931918,경기,평택시,평택시 안중보건지소,경기도 평택시 안중읍 안현로 400,031-8024-8618
298,O,37.048262,127.056991,경기,평택시,박병원,경기도 평택시 송탄로 33 (장당동),031-666-2600
299,O,37.08311,127.056581,경기,평택시,송탄보건소,경기도 평택시 서정로 295 (이충동),031-8024-7236
300,O,37.900786,127.201216,경기,포천시,포천시보건소,경기도 포천시 포천로 1612 (신읍동),031-538-3600
301,O,37.903206,127.198144,경기,포천시,경기도의료원 포천병원,경기도 포천시 포천로 1648 (신읍동),031-539-9114
302,O,37.82347,127.138687,경기,포천시,소흘보건지소,경기도 포천시 소흘읍 호국로 567,031-538-4486
303,O,37.961299,127.317293,경기,포천시,일동보건지소,경기도 포천시 일동면 화동로 1099번길 30,031-538-4488
304,O,37.539015,127.215585,경기,하남시,하남시보건소,경기도 하남시 대청로 10 (신장동),031-790-6555
305,O,37.131341,126.910772,경기,화성시,화성중앙종합병원,경기도 화성시 향남읍 발안로 5,031-371-8080
306,O,37.129068,126.904639,경기,화성시,화성시보건소,경기도 화성시 향남읍 3.1만세로 1055,031-5189-1200
307,O,37.206855,127.078596,경기,화성시,화성시보건소 동탄보건지소,경기도 화성시 노작로 226-9,031-5189-1200
308,O,37.20685,127.0786,경기,화성시,동탄성심병원,경기도 화성시 큰재봉길 7,1522-2500
309,O,37.210091,127.007894,경기,화성시,원광종합병원,경기 화성시 화산북로 21 ,031-8077-7219
310,O,37.199394,126.825009,경기,화성시,남양디에스병원,경기도 화성시 남양읍 시청로160번길 46-13,031-5180-7777
311,O,37.818515,128.857753,강원,강릉시,강릉아산병원,강원도 강릉시 사천면 방동길 38,033-610-4111
312,O,37.774519,128.907142,강원,강릉시,강릉동인병원,"강원도 강릉시 강릉대로419번길 42-  (포남동, (포남동))",033-651-6161
313,X,37.759034,128.899826,강원,강릉시,강릉고려병원,"강원도 강릉시 옥가로 30-  (옥천동,30)",033-649-0333
314,O,37.742765,128.882735,강원,강릉시,강릉시보건소,강원도 강릉시 남부로17번길 38 (내곡동),033-660-3090
315,O,38.377305,128.472167,강원,고성군,고성군보건소,강원도 고성군 간성읍 수성로 30,033-681-4000
316,O,37.522886,129.117069,강원,동해시,동해시보건소,강원 동해시 천곡동 840,033-530-2402
317,O,37.530049,129.107375,강원,동해시,동해동인병원,"강원도 동해시 하평로 26-  (평릉동, (평릉동))",033-530-0119
318,O,37.532411,129.105884,강원,동해시,근로복지공단 동해병원,강원도 동해시 하평로 11,033-530-3119
319,O,37.440286,129.16364,강원,삼척시,삼척의료원,"강원도 삼척시 오십천로 418 (남양동,(남양동))","(주간)033-570-7545
(야간)033-570-7431"
320,O,37.44374,129.172099,강원,삼척시,삼척시보건소,"강원도 삼척시 척주로 76 (남양동, 삼척시보건소)",033-570-4649
321,O,38.19606,128.576107,강원,속초시,속초시보건소,강원도 속초시 교동 980(수복로 36),033-639-2924
322,O,38.216524,128.589049,강원,속초시,강원도속초의료원,"강원도 속초시 영랑호반길 3-  (영랑동, (영랑동))","(주간)033-630-6190
(야간)033-630-6122"
323,O,38.198047,128.578367,강원,속초시,속초보광병원,속초시 중앙로 11 ,"(주간)033-639-8557
(야간)033-639-8988"
324,O,38.109778,127.98898,강원,양구군,양구군보건소,강원 양구군 양구읍 하리 34-5 ,"(주간)033-480-2791
(야간)033-480-2550"
325,O,38.104794,127.991174,강원,양구군,의료법인 성심의료재단 양구성심병원,강원도 양구군 양구읍 중심로 160 (160),033-480-8800
326,O,38.077764,128.627383,강원,양양군,양양군보건소,강원도 양양군 양양읍 양양로 9-5,"(주간)033-670-2119
(야간)033-670-2880"
327,O,37.186444,128.465235,강원,영월군,강원도영월의료원,강원도 영월군 영월읍 중앙1로 59,033-370-9129
328,O,37.185585,128.461591,강원,영월군,영월군보건소,강원도 영월군 영월읍 하송로 44,033-370-2448
329,O,37.347788,127.945865,강원,원주시,연세대학교 원주세브란스기독병원,강원도 원주시 일산로 20-0 (일산동),033-741-1641
330,O,37.351541,127.946788,강원,원주시,원주시보건소,"강원도 원주시 원일로 139, 3층 (일산동, 건강문화센터)","(주간)033-737-4007
(야간)033-737-4065"
331,O,37.332666,127.949237,강원,원주시,강원도원주의료원,강원 원주시 서원대로 387,033-760-4701~2
332,O,38.063268,128.168522,강원,인제군,인제군보건소,강원도 인제군 인제읍 인제로140번길 34,"(주간)033-460-2516
(야간)033-461-2425"
333,O,37.38306,128.658767,강원,정선군,근로복지공단정선병원,강원도 정선군 정선읍 봉양1길 145-0 ( ),033-560-7110
334,O,37.380089,128.671522,강원,정선군,정선군보건소,강원도 정선군 정선읍 녹송로 33,033-560-2739
335,O,38.148305,127.302557,강원,철원군,철원군보건소,강원도 철원군 갈말읍 군탄리 960-2,"033-450-5550, 5468"
336,X,38.15032,127.307724,강원,철원군,철원병원,강원도 철원군 갈말읍 명성로 208-0,033-450-3321
337,O,37.884102,127.739935,강원,춘천시,한림대학교 춘천성심병원,춘천시 삭주로 77,"(주간)033-240-5815
(야간)033-240-5219"
338,O,37.875547,127.720194,강원,춘천시,춘천시보건소,강원도 춘천시 중앙로 135 (중앙로3가),"(주간)033-250-4590
(야간)033-250-4597"
339,O,37.176761,128.992209,강원,태백시,태백시보건소,강원도 태백시 태백로 905 (황지동),"(주간)033-550-2718
(야간)033-552-4000"
340,O,37.104065,129.004249,강원,태백시,근로복지공단 태백병원,강원도 태백시 보드미길8,"(주간)033-581-6390
(야간)033-580-3119"
341,O,37.368833,128.390492,강원,평창군,평창군보건의료원,강원도 평창군 평창읍 노성로 11,"(주간)033-330-4877
(야간)033-330-4800"
342,O,37.690781,127.894908,강원,홍천군,홍천아산병원,강원도 홍천군 홍천읍 산림공원1길 17,033-430-5119
343,O,37.690313,127.876883,강원,홍천군,홍천군보건소,강원도 홍천군 홍천읍 신장대로 5,033-430-4024
344,O,38.107213,127.709088,강원,화천군,화천군보건의료원,강원 화천군 화천읍 중리 242-4 화천군보건의료원,033-442-4424
345,O,37.478459,127.979885,강원,횡성군,횡성대성병원,강원도 횡성군 횡성읍 횡성로 275-  ( ),033-343-0901
346,O,37.487206,127.98444,강원,횡성군,횡성군보건소,강원도 횡성군 횡성읍 횡성로 379 (횡성군 종합복지타운),033-340-5707
347,O,36.808057,127.796561,충북,괴산군,괴산군보건소,괴산군 괴산읍 동진천길 43,043-832-4000
348,O,36.815498,127.784249,충북,괴산군,괴산성모병원,충청북도 괴산군 괴산읍 임꺽정로 116-0,043-830-5400
349,O,36.981602,128.350212,충북,단양군,단양군보건소,단양군 단양읍 삼봉로 53,043-420-3263
350,O,36.98728,128.368688,충북,단양군,단양군립노인요양병원,충청북도 단양군 단양읍 별곡6길 10,043-423-8844
351,O,36.483339,127.718281,충북,보은군,(의료법인)정민의료재단 보은한양병원,충청북도 보은군 보은읍 보은로 102-0,043-544-1500
352,O,36.488194,127.71584,충북,보은군,보은군보건소,충청북도 보은군 보은읍 동광길 50,043-540-5601
353,O,36.185264,127.780804,충북,영동군,영동병원,충청북도 영동군 영동읍 대학로 106-0,043-740-9000
354,O,36.168451,127.775932,충북,영동군,영동군보건소,충청북도 영동군 영동읍 반곡동길 7,043-740-5612
355,O,36.313362,127.571922,충북,옥천군,옥천성모병원,충청북도 옥천군 옥천읍 성왕로 1195-0,043-730-7000
356,O,36.304417,127.57007,충북,옥천군,옥천군보건소,충청북도 옥천군 옥천읍 삼양로8길 10,043-730-2114
357,O,36.928813,127.68887,충북,음성군,음성군보건소,충청북도 음성군 음성읍 중앙로49,043-872-2136
358,O,36.997474,127.598523,충북,음성군,금왕태성병원,충청북도 음성군 금왕읍 음성로1230번길 10-0,043-883-8800
359,O,37.138432,128.206295,충북,제천시,제천 서울병원,충청북도 제천시 숭문로 57-0 (서부동),043-642-7609
360,O,37.149303,128.215733,충북,제천시,제천시보건소,충청북도 제천시 의림대로 242 (청전동),043-646-2720
361,O,37.162786,128.232372,충북,제천시,명지병원(제천),충청북도 제천시 내토로 991,043-640-8373
362,O,36.774298,127.586753,충북,증평군,증평군보건소,충청북도 증평군 증평읍 보건복지로 64-1 (증평군보건소),043-835-4220
363,O,36.858826,127.439792,충북,진천군,진천성모병원,충청북도 진천군 진천읍 중앙북로 36,043-533-1711
364,O,36.860565,127.439638,충북,진천군,진천군보건소,충청북도 진천군 진천읍 중앙북1길 11-8,043-539-7333
365,O,36.588217,127.505953,충북,청주시,상당보건소,청주시 상당구 남일면 단재로 480,043-201-3143
366,O,36.619536,127.496622,충북,청주시,의료법인 인화재단한국병원,충청북도 청주시 상당구 단재로 106-0 (영운동),043-222-7000
367,O,36.624428,127.495619,충북,청주시,의료법인정산의료재단효성병원,충청북도 청주시 상당구 쇠내로 16-0 (금천동),043-221-5000
368,O,36.637656,127.470206,충북,청주시,서원보건소,청주시 서원구 사직대로 227,043-201-3207
369,O,36.640243,127.473185,충북,청주시,충청북도 청주의료원,충청북도 청주시 서원구 흥덕로 48 (사직동),043-279-2300
370,O,36.673738,127.48569,충북,청주시,청주성모병원,"충청북도 청주시 청원구 주성로 173-19 (주중동,청주성모병원)",043-219-8000
371,O,36.710121,127.431004,충북,청주시,청원보건소,충청북도 청주시 청원구 오창읍 과학산업3로 238,043-201-3442
372,O,36.630516,127.426303,충북,청주시,흥덕보건소,청주시 흥덕구 비하로12번길 46,043-201-3342
373,O,36.623456,127.43098,충북,청주시,한마음의료재단 하나병원,충청북도 청주시 흥덕구 2순환로 1262-0 (가경동),043-230-6326
374,O,36.636342,127.321492,충북,청주시,베스티안병원,충청북도 흥덕구 오송읍 오송생명1로 191,043-910-7575
375,O,36.990992,127.925755,충북,충주시,충주시보건소,충주시 으뜸로 21,043-850-3431 
376,O,36.979442,127.97048,충북,충주시,충청북도 충주의료원,충청북도 충주시 안림로 239-50 (안림동),043-871-0114
377,O,36.978881,127.928777,충북,충주시,건국대학교 충주병원,충청북도 충주시 국원대로 82-0 (교현동),043-840-8200
378,O,36.273058,127.25009,충남,계룡시,계룡시보건소,충청남도 계룡시 장안로 54,042-840-3507
379,O,36.460494,127.108867,충남,공주시,충청남도공주의료원,충청남도 공주시 무령로 77 (웅진동),041-962-1111
380,O,36.456497,127.120697,충남,공주시,공주시 보건소,"충청남도 공주시 봉황로 123 (교동, 공주시보건소)",041-840-2524
381,O,36.104227,127.496355,충남,금산군,새금산병원,충청남도 금산군 금산읍 비단로 183,041-754-8272
382,O,36.112179,127.492043,충남,금산군,금산군보건소,"충청남도 금산군 금산읍 금산로 1559, 0동",041-750-4311
383,O,36.192547,127.0944,충남,논산시,백제종합병원,충청남도 논산시 시민로294번길 14 (취암동),041-733-2191
384,O,36.196443,127.104095,충남,논산시,논산시보건소,충청남도 논산시 논산대로 382 (관촉동),041-730-4086~7
385,O,36.904335,126.684311,충남,당진시,당진종합병원,충청남도 당진시 반촌로 5-15 (시곡동),041-357-0100
386,O,36.887278,126.630026,충남,당진시,당진시보건소,충청남도 당진시 서부로 56 (채운동),041-360-6003
387,O,36.324414,126.602198,충남,보령시,보령시보건소,충청남도 보령시 남포면 보령남로 234,041-930-0900
388,O,36.381111,126.622831,충남,보령시,보령아산병원,충청남도 보령시 죽성로 136 (죽정동),041-930-5333
389,O,36.275988,126.901728,충남,부여군,건양대학교 부여병원,충청남도 부여군 부여읍 계백로 200,041-837-1200
390,O,36.283016,126.909505,충남,부여군,부여군보건소,충청남도 부여군 부여읍 성왕로 205,041-830-8600
391,O,36.775611,126.46511,충남,서산시,충청남도서산의료원,충청남도 서산시 중앙로 149 (석림동),041-689-7000
392,O,36.774914,126.444342,충남,서산시,서산시보건소,"충청남도 서산시 호수공원6로 6 (예천동, 서산시보건소)",041-661-8232
393,O,36.084737,126.687619,충남,서천군,서해병원,충청남도 서천군 서천읍 서천로 184,041-951-8282
394,O,36.082607,126.689743,충남,서천군,서천군보건소,충청남도 서천군 서천읍 사곡길 26,041-950-6750
395,O,36.779792,127.020092,충남,아산시,아산충무병원,충청남도 아산시 문화로 381 (모종동),041-536-6666
396,O,36.78274,127.01461,충남,아산시,아산시보건소,충청남도 아산시 번영로 224번길 20 아산시보건소 ,041-537-3311
397,O,36.783272,127.000907,충남,아산시,현대병원,충남 아산시 시민로 388,041-546-3636
398,O,36.691139,126.837683,충남,예산군,의료법인 예당의료재단 예산종합병원,충청남도 예산군 예산읍 금오대로 94,041-330-4000
399,O,36.685834,126.845793,충남,예산군,예산군보건소,"충청남도 예산군 예산읍 군청로 22, 예산군청",041-339-6062
400,O,36.815886,127.113669,충남,천안시,천안시 서북구보건소,충청남도 천안시 서북구 번영로 156 서북구보건소 ,041-521-2552
401,O,36.807128,127.150575,충남,천안시,천안시 동남구보건소,충청남도 천안시 동남구 버들로 34 동남구보건소 ,041-521-2651
402,O,36.803018,127.136343,충남,천안시,학교법인동은학원 순천향대학교 부속천안병원,"충청남도 천안시 동남구 순천향6길 31 (봉명동, 5동 (봉명동,순천향대학교병원))",1577-7523
403,O,36.797378,127.131147,충남,천안시,의료법인영서의료재단 천안충무병원,충청남도 천안시 서북구 다가말3길 8 (쌍용동),041-570-7555
404,O,36.775442,127.179215,충남,천안시,충청남도천안의료원(소아청소년과 없음),충청남도 천안시 동남구 충절로 537 (삼룡동),041-570-7033
405,O,36.781105,127.15586,충남,천안시,천안우리병원,충청남도 천안시 동남구 남부대로 350 (청당동,041-590-9000
406,O,36.455285,126.804512,충남,청양군,청양군보건의료원,충청남도 청양군 청양읍 칠갑산로7길 54,041-942-3401
407,O,36.752116,126.322864,충남,태안군,태안군보건의료원,충청남도 태안군 태안읍 서해로 1952-16,041-671-5315
408,O,36.599916,126.674615,충남,홍성군,충청남도 홍성의료원,충청남도 홍성군 홍성읍 조양로 224,041-630-6114
409,O,36.597293,126.655498,충남,홍성군,홍성군보건소,충청남도 홍성군 홍성읍 문화로 106,041-632-2588
410,O,35.443706,126.683281,전북,고창군,고창군보건소,전라북도 고창군 고창읍 전봉준로 90 ((고창읍 전봉준로 90)),063-560-8711
411,O,35.43639,126.69362,전북,고창군,(의)석천재단고창병원,전라북도 고창군 고창읍 화신1길 9,063-560-5600
412,O,35.964751,126.720183,전북,군산시,군산시보건소,전라북도 군산시 수송동로 58 (수송동),063-460-3200
413,O,35.954807,126.712487,전북,군산시,군산의료원,"전라북도 군산시 의료원로 27 (지곡동,(지곡동, 군산의료원))",063-472-5000
414,O,35.977327,126.737192,전북,군산시,동군산병원,전북 군산시 조촌로 149,063-440-0516
415,O,35.807529,126.880209,전북,김제시,김제우석병원,"전라북도 김제시 서암4길 45 (서암동,(서암동))",063-540-5114
416,O,35.800721,126.883358,전북,김제시,김제시보건소,전라북도 김제시 성산길 138 (요촌동),063-540-1300
417,O,35.431904,127.407195,전북,남원시,남원의료원,"전라북도 남원시 충정로 365 (고죽동,(고죽동))",063-620-1114
418,O,35.397684,127.364342,전북,남원시,남원시보건소,전라북도 남원시 요천로 1285 (조산동),063-625-4000
419,O,36.00574,127.671662,전북,무주군,무주군보건의료원,"전라북도 무주군 무주읍 한풍루로 413, 무주군보건의료원",063-320-8314
420,O,35.722782,126.735602,전북,부안군,부안군보건소,전라북도 부안군 부안읍 오리정로 124,063-584-1261
421,O,35.72482,126.734549,전북,부안군,부안성모병원,전라북도 부안군 부안읍 오정2길 24,063-581-5100
422,O,35.367316,127.144047,전북,순창군,순창군보건의료원,전라북도 순창군 순창읍 교성로 135 (순창군보건의료원),063-650-5352
423,O,35.921195,127.092656,전북,완주군,완주군보건소,전라북도 완주군 삼례읍 삼봉로 215-20,063-290-3133
424,O,35.961596,126.966494,전북,익산시,익산병원,"전라북도 익산시 무왕로 969 (신동,(신동))",063-840-9112
425,O,35.960987,126.966471,전북,익산시,익산시보건소,전라북도 익산시 무왕로 975 (신동),063-859-4811
426,O,35.612627,127.286984,전북,임실군,임실군보건의료원,전라북도 임실군 임실읍 호국로 1680,063-640-3119
427,O,35.654492,127.519664,전북,장수군,장수군보건의료원,전라북도 장수군 장수읍 장천로 247,063-350-2119
428,O,35.814159,127.133233,전북,전주시,예수병원,"전라북도 전주시 완산구 서원로 365 (중화산동1가,(중화산동1가, 예수병원))",063-230-8282
429,O,35.846169,127.153438,전북,전주시,대자인병원,"전라북도 전주시 덕진구 견훤로 390 (우아동3가,(우아동3가))",063-250-8703
430,O,35.815169,127.124772,전북,전주시,전주병원,"전라북도 전주시 완산구 한두평3길 13 (중화산동2가,(중화산동2가, 전주병원))",063-220-7280
431,O,35.815533,127.142653,전북,전주시,전주시보건소(덕진진료실),전라북도 전주시 덕진구 벚꽃로 55 전주시보건소 덕진진료실,063-250-3907
432,O,35.865665,127.147928,전북,전주시,호성전주병원,전주시 덕진구 동부대로 895,063-240-8894
433,O,35.588858,126.823488,전북,정읍시,정읍아산병원,"전라북도 정읍시 충정로 606-22 (용계동,(용계동))",063-530-6000
434,O,35.577941,126.854538,전북,정읍시,정읍시보건소,전라북도 정읍시 수성1로 61 (수성동),063-539-6112
435,O,35.794864,127.432295,전북,진안군,진안군의료원,전라북도 진안군 진안읍 진무로 1145,063-430-7000
436,O,35.795753,127.433927,전북,진안군,진안군보건소,전라북도 진안군 진안읍 진무로 1189 (진안보건소),063-430-8560
437,O,34.636661,126.758022,전남,강진군,강진의료원,전라남도 강진군 강진읍 탐진로 5,061-433-2167
438,O,34.638097,126.775412,전남,강진군,강진군보건소,전라남도 강진군 강진읍 목리길 11,061-430-3592
439,O,34.62098,127.294111,전남,고흥군,고흥종합병원,전라남도 고흥군 고흥읍 고흥로 1935,061-835-6000
440,O,34.592416,127.268636,전남,고흥군,고흥군보건소,전라남도 고흥군 고흥읍 등암3길 5,061-830-6688
441,O,34.546631,127.145758,전남,고흥군,녹동현대병원,전남 고흥군 도양읍 차경구렁목길 215,061-840-1200
442,O,35.276345,127.287914,전남,곡성군,곡성사랑병원,전라남도 곡성군 곡성읍 곡성로 761,061-360-6000
443,O,35.279104,127.297258,전남,곡성군,곡성군보건의료원,전라남도 곡성군 곡성읍 곡성로 854,061-360-7563
444,O,34.936163,127.696945,전남,광양시,광양사랑병원,"전라남도 광양시 공영로 71 (중동, (중동))",061-797-7000
445,O,34.980942,127.583598,전남,광양시,광양시보건소,전라남도 광양시 광양읍 인덕로 1100,061-797-4015
446,O,35.215849,127.463827,전남,구례군,구례병원,전라남도 구례군 구례읍 동편제길 4,061-780-3300
447,O,35.216049,127.461064,전남,구례군,구례군보건의료원,전라남도 구례군 구례읍 동편제길 30,061-780-2673
448,X,35.036943,126.721557,전남,나주시,나주종합병원,"전라남도 나주시 영산로 5419-0 (성북동,나주종합병원)",061-330-6114
449,O,34.995137,126.708147,전남,나주시,나주시보건소,"전라남도 나주시 풍물시장2길 57-32 (이창동, 나주시보건소)",061-339-2164
450,X,35.015729,126.756337,전남,나주시,빛가람동 선별진료소,전남 나주시 빛가람로 721,061-339-2164
451,O,35.040078,126.805735,전남,나주시,산포면 선별진료소,전남 나주시 산포면 산포로 468-15,061-339-2164
452,O,35.315329,126.98215,전남,담양군,담양사랑병원,전라남도 담양군 담양읍 천변7길 19,061-380-9000
453,O,35.324937,126.981301,전남,담양군,담양군보건소,전라남도 담양군 담양읍 완동길 10-11,061-380-3972
454,O,34.809413,126.416412,전남,목포시,목포한국병원,전라남도 목포시 영산로 483 (상동),061-270-5800
455,O,34.804582,126.420458,전남,목포시,목포기독병원,전라남도 목포시 백년대로 303 (상동),061-280-7500
456,O,34.821275,126.421032,전남,목포시,목포중앙병원,전라남도 목포시 영산로 623 (석현동),061-280-3000
457,O,34.803885,126.40543,전남,목포시,목포시의료원,"전라남도 목포시 이로로 18 (용해동, (용해동))",061-260-6500
458,O,34.817148,126.380262,전남,목포시,세안종합병원,"전라남도 목포시 고하대로 795-2 (연산동,(연산동))",061-260-6713
459,O,34.810402,126.375774,전남,목포시,전남중앙병원,전라남도 목포시 고하대로 724 (산정동),061-260-3555
460,O,34.804178,126.373623,전남,목포시,목포시보건소,전라남도 목포시 원산로45번길 5 (산정동),061-277-4000
461,O,34.991709,126.489118,전남,무안군,대송의료재단 무안병원,전라남도 무안군 무안읍 몽탄로 65,061-450-3111
462,O,34.990108,126.480841,전남,무안군,무안군보건소,전라남도 무안군 무안읍 무안로 530,061-450-5021
463,O,34.77582,127.104547,전남,보성군,보성아산병원,전라남도 보성군 미력면 가평길 36-17,061-850-3606
464,O,34.77012,127.079122,전남,보성군,보성군보건소,전라남도 보성군 보성읍 송재로 153,061-850-5684
465,O,34.833944,127.345935,전남,보성군,벌교삼호병원,전라남도 보성군 벌교읍 남하로 12,061-859-5051
466,O,34.966995,127.485957,전남,순천시,순천시보건소,전남 순천시 중앙로 232,061-749-6680
467,O,34.964653,127.543702,전남,순천시,순천 성가롤로병원,전라남도 순천시 순광로 221 (조례동),061-720-2000
468,O,34.958084,127.48341,전남,순천시,순천의료원,전라남도 순천시 서문성터길 2 (매곡동),061-759-9440
469,O,34.947852,127.512499,전남,순천시,순천 한국병원,전라남도 순천시 우명길 42 ,061-740-5291
470,O,34.96109,127.525138,전남,순천시,순천병원,전라남도 순천시 조례1길 24,061-720-7580
471,O,34.833537,126.352483,전남,신안군,신안군보건소,전라남도 신안군 압해읍 천사로 1004,061-240-8084
472,X,34.722497,125.93277,전남,신안군,신안대우병원,전라남도 신안군 비금면 송치길 155-11,061-262-3301
473,O,34.769254,127.654244,전남,여수시,여천전남병원,"전라남도 여수시 무선로 95 (선원동, (선원동))",061-690-6000
474,O,34.759305,127.660645,전남,여수시,여수시보건소,전라남도 여수시 시청서4길 47 (학동),061-659-4252
475,O,34.744849,127.727973,전남,여수시,여수전남병원,"전남 여수시 좌수영로 49(광무동,전남병원)",061-640-7118
476,O,34.761454,127.675194,전남,여수시,여수한국병원,여수시 여천체육공원길 10,061-689-9119
477,O,34.766133,127.663545,전남,여수시,여수제일병원,여수시 쌍봉로 70,061-689-8119
478,O,35.284599,126.498977,전남,영광군,영광종합병원,전라남도 영광군 영광읍 와룡로 3,061-350-8119
479,O,35.275139,126.511069,전남,영광군,영광기독병원,전라남도 영광군 영광읍 신남로 265,061-350-3000
480,O,35.274435,126.504225,전남,영광군,영광군보건소,전라남도 영광군 영광읍 신남로4길 17,061-350-5552
481,O,34.794344,126.700911,전남,영암군,영암병원,전라남도 영암군 영암읍 오리정길 8,061-470-7100
482,O,34.795654,126.704024,전남,영암군,영암군보건소,전라남도 영암군 영암읍 오리정길 39,061-470-6536
483,O,34.317162,126.735688,전남,완도군,완도대성병원,전라남도 완도군 완도읍 청해진동로 63,061-553-1234
484,O,34.336281,126.731267,전남,완도군,완도군보건의료원,전라남도 완도군 완도읍 농공단지길 34,061-550-6767
485,O,35.30597,126.783637,전남,장성군,장성병원,전라남도 장성군 장성읍 역전로 171,061-390-9000
486,O,35.304522,126.782448,전남,장성군,장성군보건소,전라남도 장성군 장성읍 청운11길 13,061-390-8333
487,O,34.677174,126.910898,전남,장흥군,장흥종합병원,전라남도 장흥군 장흥읍 흥성로 74 (74),061-862-8300
488,O,34.676432,126.90848,전남,장흥군,장흥군보건소,전라남도 장흥군 장흥읍 흥성로 49,061-860-6481
489,O,34.482465,126.264184,전남,진도군,진도한국병원,전라남도 진도군 진도읍 남문길 48,061-542-7575
490,O,34.480392,126.26294,전남,진도군,진도군보건소,전라남도 진도군 진도읍 남동1길 40-9,061-540-6074
491,O,35.061894,126.520024,전남,함평군,함평성심병원,전라남도 함평군 함평읍 영수길 132-  ( ),061-324-0001
492,O,35.062402,126.52434,전남,함평군,함평군보건소,전라남도 함평군 함평읍 중앙길 54-8,061-320-2417
493,O,34.571755,126.612805,전남,해남군,해남종합병원,전라남도 해남군 해남읍 해남로 45,061-536-4116
494,O,34.583489,126.645936,전남,해남군,해남우리종합병원,전남 해남군 옥천면 해남로 597,061-530-7000
495,O,34.570587,126.612288,전남,해남군,해남군보건소,전라남도 해남군 해남읍 해남로 46,061-531-3745
496,O,35.056505,126.989623,전남,화순군,화순고려병원,전라남도 화순군 화순읍 충의로 109,061-370-3700
497,O,35.05924,127.002639,전남,화순군,화순전남대학교병원,전남 화순군 화순읍 서양로 322,061-1899-0000
498,O,35.058453,126.989918,전남,화순군,화순성심병원,전남 화순군 화순읍 만연로 31,061-370-9114
499,O,35.05757,126.982314,전남,화순군,화순군보건소,전라남도 화순군 화순읍 쌍충로 62,061-379-5342
500,O,35.826448,128.737381,경북,경산시,세명병원,경상북도 경산시 경안로 208 (중방동),053-819-8500
501,O,35.808974,128.740277,경북,경산시,경산중앙병원,경상북도 경산시 경안로 11 (백천동),053-715-0119
502,O,35.825,128.743321,경북,경산시,경산시 보건소,경상북도 경산시 남매로 158 (중방동),053-810-6314
503,O,35.859504,129.224587,경북,경주시,경주시 보건소,경상북도 경주시 양정로 300 (동천동),054-779-8573
504,O,35.874405,129.1914,경북,경주시,경주시 주민건강지원센터,경주시 현곡면 용담로307,054-779-8668
505,O,35.725191,128.264877,경북,고령군,고령군보건소,경북 고령군 대가야읍 왕릉로 56-5 고령군보건소,054-954-1300
506,O,35.730221,128.272143,경북,고령군,고령영생병원,경상북도 고령군 대가야읍 중앙로 33,054-955-2661
507,O,36.102889,128.382526,경북,구미시,구미순천향병원,"경상북도 구미시 1공단로 179 (공단동, (공단동))",054-468-9114
508,O,36.114457,128.340601,경북,구미시,구미차병원,경상북도 구미시 신시로10길 12 (형곡동),054-450-9700
509,X,36.096261,128.422915,경북,구미시,구미강동병원,경상북도 구미시 인동20길 46 (진평동),054-453-7575
510,O,36.139909,128.345923,경북,구미시,구미시 구미보건소,경상북도 구미시 선산대로 111 (지산동),054-480-4032
511,O,36.229672,128.569576,경북,군위군 ,군위군보건소,경상북도 군위군 군위읍 군청로 70,054-383-4000
512,O,36.122668,128.126482,경북,김천시,김천의료원,경상북도 김천시 모암길 24 (모암동),054-432-8901
513,O,36.13543,128.118761,경북,김천시,김천제일병원,경상북도 김천시 신음1길 12 (신음동),054-420-9440
514,O,36.139471,128.112851,경북,김천시,김천시 보건소,경상북도 김천시 시청1길 221 (신음동),054-433-4000
515,O,36.114338,128.143213,경북,김천시,김천소년교도소 부속의원,경북 김천시 영남대로 1968,054-429-5575
516,O,36.584482,128.189308,경북,문경시,문경제일병원,경상북도 문경시 당교3길 25 (모전동),054-550-7700
517,O,36.595971,128.199069,경북,문경시,문경중앙병원,경상북도 문경시 중앙로 117-18 (점촌동),054-555-2011
518,O,36.59623,128.19754,경북,문경시,문경시 보건소,경상북도 문경시 점촌1길 9 (점촌동),054-555-2033
519,O,36.890459,128.742092,경북,봉화군,봉화군 보건소,경상북도 봉화군 봉화읍 봉화로 1203,054-673-4000
520,O,36.891698,128.733361,경북,봉화군,봉화해성병원,경상북도 봉화군 봉화읍 보밑길 3,054-674-0011
521,O,36.42033,128.159739,경북,상주시,상주성모병원,경상북도 상주시 냉림서성길 7 (냉림동),054-532-5001
522,O,36.416716,128.150514,경북,상주시,상주시 보건소,경상북도 상주시 중앙로 111 (무양동),054-535-4000
523,O,35.917133,128.279051,경북,성주군,성주군보건소 ,경상북도 성주군 성주읍 성밖숲길 12,054-933-2400
524,O,36.56703,128.730301,경북,안동시,안동시보건소,경북 안동시 서동문로 165,"054-840-5999,5917"
525,O,36.568007,128.732147,경북,안동시,안동의료원,경상북도 안동시 태사2길 55 (북문동),054-850-6055
526,O,36.547573,128.700713,경북,안동시,안동병원,경상북도 안동시 앙실로 11 (수상동),054-840-1004
527,O,36.567193,128.722827,경북,안동시,안동성소병원 ,경상북도 안동시 서동문로 99 (금곡동),054-850-8114
528,O,36.524759,129.402416,경북,영덕군,영덕아산병원 ,경상북도 영덕군 영해면 영덕로 1621,054-730-0114
529,O,36.418171,129.367651,경북,영덕군,영덕군보건소,경북 영덕군 영덕읍 군청길 53,054-730-6893
530,O,36.661952,129.118026,경북,영양군 ,영양군보건소,경북 영양군 영양읍 동서대로 82,054-680-5196
531,O,36.662644,129.117235,경북,영양군 ,영양병원,경상북도 영양군 영양읍 동서대로 75,054-682-0727
532,O,36.806023,128.621721,경북,영주시,영주시보건소,경상북도 영주시 시청로1번길 19 (휴천동),054-631-4000
533,O,35.957365,128.913163,경북,영천시,영남대학교 영천병원 ,경상북도 영천시 오수1길 10 (오수동),054-338-9000
534,O,35.968608,128.932444,경북,영천시,영천시 보건소,경상북도 영천시 옛군청1길 31 (문내동),054-339-7860
535,O,36.657716,128.452963,경북,예천군,예천군보건소,경상북도 예천군 예천읍 군청길 33,054-650-8616
536,O,36.657779,128.459207,경북,예천군,예천권병원,경상북도 예천군 예천읍 시장로 136,054-654-6611
537,O,37.486007,130.899566,경북,울릉군,울릉군보건의료원,경상북도 울릉군 울릉읍 울릉순환로 396-18,054-790-6871
538,O,36.992636,129.409542,경북,울진군 ,울진군의료원 ,경상북도 울진군 울진읍 현내항길 71,054-785-7015
539,O,36.345799,128.697394,경북,의성군 ,의성군보건소,경상북도 의성군 의성읍 북부길 150,054-830-6660
540,O,36.354467,128.694751,경북,의성군 ,공생병원,경상북도 의성군 의성읍 문소3길 96-0 (공생병원),054-834-3881
541,O,35.648529,128.737228,경북,청도군,청도군보건소(치매안심센터),청도군 화양읍 산성강변길 471,"054-370-6566, 2673"
542,O,36.43099,129.052747,경북,청송군,청송군보건의료원,경상북도 청송군 청송읍 의료원길 19,054-870-7100
543,O,36.529474,129.046711,경북,청송군,경북북부제2교도소 부속의원,경북 청송군 진보면 양정길 110,054-870-2575
544,O,35.990919,128.418381,경북,칠곡군 ,칠곡군보건소,경상북도 칠곡군 왜관읍 관문로1길 30,054-973-4000
545,X,35.996142,128.401561,경북,칠곡군 ,왜관병원,경상북도 칠곡군 왜관읍 군청2길 10,054-971-1002
546,O,36.070669,129.380434,경북,포항시,포항시 북구보건소,경상북도 포항시 북구 삼흥로 98 (장성동),054-270-4114
547,O,35.992384,129.396206,경북,포항시,포항시 남구보건소,경상북도 포항시 남구 동해안로 6119 (인덕동),054-270-4004
548,O,36.017874,129.362059,경북,포항시,포항세명 기독병원,경상북도 포항시 남구 포스코대로 351 (대도동),054-275-0005
549,O,36.015805,129.339908,경북,포항시,포항 성모병원,"경상북도 포항시 남구 대잠동길 17 (대잠동, (대잠동))",054-272-0151
550,O,36.034869,129.354959,경북,포항시,포항의료원,"경상북도 포항시 북구 용흥로 36 (용흥동, (용흥동))",054-247-0551
551,O,34.872773,128.626815,경남,거제시 ,의료법인 거제백병원,경상남도 거제시 계룡로5길 14 (상동동),055-733-0119
552,O,34.871998,128.722149,경남,거제시 ,의료법인 대우병원,경상남도 거제시 두모길 16 (두모동),055-680-8119
553,O,34.891858,128.636714,경남,거제시 ,거제시 보건소,경상남도 거제시 수양로 506 (양정동),055-639-6133
554,O,34.897853,128.643749,경남,거제시 ,맑은샘병원,경상남도 거제시 연초면 거제대로 4477,055-736-1004
555,O,35.686567,127.909111,경남,거창군 ,거창적십자병원,경상남도 거창군 거창읍 중앙로 91,055-944-3251
556,O,35.682551,127.910045,경남,거창군 ,거창군 보건소,경상남도 거창군 거창읍 거함대로 3079 (보건소),055-940-8337
557,O,34.969446,128.315363,경남,고성군 ,고성군 보건소,경상남도 고성군 고성읍 남포로79번길 103-3,055-670-4013
558,O,35.229423,128.87002,경남,김해시,김해중앙병원,경상남도 김해시 분성로 94-8 (외동),055-330-6007
559,O,35.262303,128.861599,경남,김해시,조은금강병원,경상남도 김해시 김해대로 1814-37 (삼계동),055-330-0300
560,O,35.208685,128.805595,경남,김해시,갑을장유병원,경상남도 김해시 장유로 167-13 (부곡동),055-310-6114
561,O,35.232302,128.870855,경남,김해시,김해시 보건소,경상남도 김해시 분성로 227 (외동),055-330-4483
562,O,34.846177,127.894383,경남,남해군 ,의료법인이도의료 재단 남해병원,경상남도 남해군 남해읍 화전로 169,055-863-2201
563,O,34.844796,127.898785,경남,남해군 ,남해군 보건소,경상남도 남해군 남해읍 선소로 6,055-860-8730
564,X,35.484563,128.755574,경남,밀양시 ,밀양 윤병원,경상남도 밀양시 삼문중앙로 32 (삼문동),055-354-2200
565,O,35.485724,128.75602,경남,밀양시 ,밀양시 보건소,경상남도 밀양시 삼문중앙로 41 (삼문동),055-359-7015
566,O,34.933048,128.080108,경남,사천시,삼천포서울병원,경상남도 사천시 남일로 33 (동금동),055-835-9018
567,O,35.004411,128.064119,경남,사천시,사천시 보건소,경상남도 사천시 용현면 시청로 77,055-831-3620
568,O,34.937367,128.079501,경남,사천시,의료법인승연의료재단 제일병원,경남 사천시 중앙로136,055-833-4400
569,O,35.416002,127.884036,경남,산청군,산청군보건의료원,경상남도 산청군 산청읍 중앙로 97,055-970-7500
570,O,35.327958,129.006267,경남,양산시 ,양산부산대학교병원,경상남도 양산시 물금읍 금오로 20,055-360-1476
571,X,35.353315,129.043706,경남,양산시 ,베데스다 병원,양산시 신기로 28,055-384-9911
572,X,35.406403,129.164445,경남,양산시 ,웅상중앙병원,양산시 서창로 59,055-912-1032
573,O,35.335763,129.024919,경남,양산시 ,양산시 보건소,경상남도 양산시 삽량로 169 (중부동),055-392-5220
574,X,35.318585,128.258773,경남,의령군 ,의령병원,경상남도 의령군 의령읍 의병로14길 10,055-573-4100
575,O,35.317779,128.254681,경남,의령군 ,의령군 보건소,경상남도 의령군 의령읍 의병로8길 16,055-570-4045
576,O,35.179394,128.090412,경남,진주시,진주제일병원,진주시 진주대로 885,055-756-2900
577,O,35.178445,128.092001,경남,진주시,진주고려병원,진주시 동진로 2,055-751-2525
578,O,35.191821,128.088228,경남,진주시,진주반도병원,진주시 남강로 701,055-749-0679
579,O,35.185257,128.069568,경남,진주시,진주복음병원,진주시 진양호로 370,055-749-7119
580,O,35.174453,128.09299,경남,진주시,진주세란병원,진주시 진주대로 829,055-760-7575
581,O,35.166301,128.128628,경남,진주시,진주한일병원,진주시 범골로 17,055-750-1333
582,O,35.214761,128.122939,경남,진주시,진주시 보건소,경상남도 진주시 월아산로 2026 (초전동),055-749-5714
583,X,35.542183,128.493386,경남,창녕군,태황의료재단 한성병원,경상남도 창녕군 창녕읍 교리1길 2,055-530-5000
584,O,35.545409,128.488379,경남,창녕군,창녕군 보건소,경상남도 창녕군 창녕읍 우포2로 1189-35,055-530-6217
585,O,35.227956,128.685595,경남,창원시,창원시 창원보건소,경상남도 창원시 의창구 중앙대로162번길 9 (신월동),055-225-5744
586,O,35.186295,128.561576,경남,창원시,SMG연세병원,창원시 마산합포구 3·15대로 76,055-240-7777
587,O,35.182419,128.562916,경남,창원시,창원시 마산보건소,"경상남도 창원시 마산합포구 월영동북로 15 (해운동, 마산보건소)",055-225-5944
588,O,35.13532,128.718698,경남,창원시,창원시 진해보건소,"경상남도 창원시 진해구 진해대로 1101 (풍호동, 진해보건소)",055-225-6123
589,O,35.154606,128.698377,경남,창원시,연세에스병원,경상남도 창원시 진해구 해원로32번길 13 (이동),055-548-7700
590,O,35.149724,128.66112,경남,창원시,세광병원,경상남도 창원시 진해구 중원동로 55-1 (중앙동),055-540-3700
591,O,35.242891,128.591918,경남,창원시,삼성창원병원,"경상남도 창원시 마산회원구 팔용로 158 (합성동, 삼성창원병원)",055-233-6121
592,O,35.198852,128.566464,경남,창원시,마산의료원,경상남도 창원시 마산합포구 3·15대로 231 (중앙동3가),055-249-1116
593,O,35.198839,128.708105,경남,창원시,창원경상대학교병원,"경상남도 창원시 성산구 삼정자로 11 (성주동, 창원경상대학교병원)","(주)055-214-1000
(야)055-214-2119"
594,O,35.221127,128.686615,경남,창원시,한마음창원병원,경상남도 창원시 성산구 원이대로682번길 21 (상남동),055-267-2000
595,X,35.218459,128.671026,경남,창원시,창원병원,경상남도 창원시 성산구 창원대로 721 (중앙동),055-280-7777
596,O,35.237206,128.645926,경남,창원시,창원파티마병원,창원시 의창구 창이대로 45,055-270-1020
597,O,34.842496,128.420006,경남,통영시 ,통영적십자병원,경상남도 통영시 중앙로 97 (서호동),055-644-8901
598,O,34.859858,128.432065,경남,통영시 ,통영시 보건소,경상남도 통영시 안개4길 108 (무전동),055-650-6050
599,O,35.083033,127.738776,경남,하동군 ,새하동병원,"경상남도 하동군 하동읍 화심길 39, 새하동병원",055-880-4200
600,O,35.06682,127.752961,경남,하동군 ,하동군 보건소,경상남도 하동군 하동읍 군청로 31,055-882-4000
601,O,35.309109,128.516015,경남,함안군,영동병원,경상남도 함안군 칠원읍 용산2길 45-13,055-586-2000
602,O,35.275743,128.410366,경남,함안군,함안군 보건소,경상남도 함안군 가야읍 중앙남4길 10,055-580-3113
603,O,35.520542,127.729253,경남,함양군 ,함양성심병원,경상남도 함양군 함양읍 고운로 70,055-963-4322
604,O,35.519656,127.731797,경남,함양군 ,함양군 보건소,경상남도 함양군 함양읍 한들로 141,055-960-5334
605,O,35.566358,128.16329,경남,합천군 ,삼성합천병원,경상남도 합천군 합천읍 대야로 876,055-933-3322
606,O,35.567976,128.156593,경남,합천군 ,합천군 보건소,경상남도 합천군 합천읍 동서로 39,055-930-3683
607,O,33.254966,126.564631,제주,서귀포,서귀포의료원,"제주특별자치도 서귀포시 장수로 47 (동홍동,(동홍동))",064-730-3000
608,O,33.254575,126.565488,제주,서귀포,서귀포열린병원,제주특별자치도 서귀포시 일주동로 8638 (동홍동),064-762-8001
609,O,33.489882,126.485193,제주,제주시,제주한라병원,"제주특별자치도 제주시 도령로 65 (연동, (연동))",064-740-5975
610,O,33.496254,126.546291,제주,제주시,한마음병원,제주특별자치도 제주시 연신로 52 (이도이동),064-750-9119
611,O,33.500463,126.516774,제주,제주시,한국병원,제주특별자치도 제주시 서광로 193 (삼도일동),064-750-0119
612,O,33.492309,126.470726,제주,제주시,중앙병원,"제주특별자치도 제주시 월랑로 91-0 (이호이동,중앙병원)",064-786-7000
613,O,35.833368,128.541836,대구,달서구,달서구보건소 관할 자동차 이동형(Drive-thru) 임시선별진료소 ,대구 달서구 학산로 140 달서구노인종합복지관 ,053-667-5618
614,O,35.695319,128.445486,대구,달성군,달성군보건소 관할 자동차 이동형(Drive-thru) 임시선별진료소 ,대구 달성군 현풍읍 현풍로6길 5 도깨비시장,053-668-3333
615,O,35.859883,128.693293,대구,동구,동구보건소 관할 자동차 이동형(Drive-thru) 임시선별진료소 ,대구 동구 율하동 율하체육공원박주영축구장 ,053-662-3200
616,O,35.874043,128.542183,대구,서구,서구보건소 관할 자동차 이동형(Drive-thru) 임시선별진료소 ,대구 서구 당산로 403 서구 구민운동장 ,053-663-3111
